KAZEOSAT 1              
1 39731U 14024A   26117.50931259  .00000443  00000+0  14794-3 0  9993
2 39731  98.3220 191.2125 0001452  97.6291 262.5063 14.42059833631256
ALOS-2                  
1 39766U 14029A   26117.54980137 -.00000006  00000+0  61293-5 0  9993
2 39766  97.9198 215.4381 0001688  84.6757 275.4648 14.79478024644095
KAZEOSAT 2              
1 40010U 14033A   26117.50665985  .00000646  00000+0  80726-4 0  9999
2 40010  97.5453 319.7874 0009828 121.1540 239.0641 14.85407446641436
HODOYOSHI-4             
1 40011U 14033B   26117.53471005  .00001701  00000+0  18993-3 0  9990
2 40011  97.5462 304.8059 0025066 112.2418 248.1462 14.88002045641277
DEIMOS-2                
1 40013U 14033D   26117.47049225  .00001934  00000+0  18850-3 0  9990
2 40013  97.5900 353.7267 0002271 101.9911 258.1563 14.93579871630156
HODOYOSHI-3             
1 40015U 14033F   26117.39071405  .00001312  00000+0  15738-3 0  9990
2 40015  97.6373 282.4934 0033487 159.5484 200.7081 14.85272351640084
SPOT 7                  
1 40053U 14034A   26117.49888837  .00000777  00000+0  16801-3 0  9995
2 40053  98.0662 181.2896 0001552  78.1173 282.0202 14.60913555629732
SKYSAT-B                
1 40072U 14037D   26117.42097608  .00001534  00000+0  17424-3 0  9994
2 40072  98.3800  73.5103 0007013  84.0001 276.2013 14.87889636638419
WORLDVIEW-3 (WV-3)      
1 40115U 14048A   26117.49584536  .00000880  00000+0  10964-3 0  9997
2 40115  97.8577 193.0283 0002857 106.8928 253.2601 14.84935171634384
GAOFEN-2                
1 40118U 14049A   26117.49969714  .00000794  00000+0  10975-3 0  9992
2 40118  98.0143 181.7489 0008417  45.1912 314.9983 14.80841431631732
YAOGAN-21               
1 40143U 14053A   26117.53974084  .00010080  00000+0  39866-3 0  9995
2 40143  97.1526 159.9662 0006314 271.9722  88.0794 15.25635410647236
YAOGAN-22               
1 40275U 14063A   26117.38357466 -.00000009  00000+0  10093-3 0  9996
2 40275 100.7646 267.8268 0005797 307.2631  52.7951 13.15529613553135
ASNARO                  
1 40298U 14070A   26117.52010449  .00012594  00000+0  59305-3 0  9992
2 40298  97.3464 194.9942 0002744  18.4513 341.6821 15.19659781636311
YAOGAN-24               
1 40310U 14072A   26117.51612362  .00000612  00000+0  96037-4 0  9992
2 40310  98.1402 254.4481 0015219  67.9930 292.2894 14.76154353616248
CBERS 4                 
1 40336U 14079A   26117.50330595  .00000254  00000+0  10271-3 0  9998
2 40336  98.3393 175.9308 0001332 130.0306 230.0997 14.35545725596683
YAOGAN-26               
1 40362U 14088A   26117.52824493  .00009551  00000+0  20208-3 0  9994
2 40362  97.0659 119.0001 0003003 197.7911 162.3234 15.45330307629870
SMAP                    
1 40376U 15003A   26117.48178872  .00000460  00000+0  98137-4 0  9992
2 40376  98.1294 125.2910 0001769  76.3999 283.7400 14.63393045600201
KOMPSAT-3A              
1 40536U 15014A   26117.52617093  .00034721  00000+0  54569-3 0  9997
2 40536  97.6894 105.2804 0059114   4.1557 356.0173 15.51517529613955
SENTINEL-2A             
1 40697U 15028A   26117.51539236  .00000303  00000+0  13219-3 0  9997
2 40697  98.5623 193.0902 0001294  86.3884 273.7447 14.30824386566480
GAOFEN-8                
1 40701U 15030A   26117.50537927  .00028411  00000+0  61993-3 0  9992
2 40701  97.6933 307.9011 0009368  26.0235 334.1481 15.44146286603628
CARBONITE 1 (CBNT-1)    
1 40718U 15032D   26117.52810251  .00003474  00000+0  42831-3 0  9990
2 40718  97.6498 297.7263 0016056  99.9615 260.3412 14.83428217581831
YAOGAN-27               
1 40878U 15040A   26117.55072064  .00000434  00000+0  12550-2 0  9998
2 40878 100.1141 106.1360 0007987 336.8516  23.2237 13.16069511511006
GAOFEN-9 01             
1 40894U 15047A   26117.52006113  .00000977  00000+0  12652-3 0  9998
2 40894  97.6324 155.5073 0026086 308.3972  51.4900 14.82790453572688
YAOGAN-28               
1 41026U 15064A   26117.53969064  .00009036  00000+0  34546-3 0  9990
2 41026  97.2993 256.8808 0010970  18.5352 341.6285 15.26765106582959
YAOGAN-29               
1 41038U 15069A   26117.50852795  .00001160  00000+0  14926-3 0  9997
2 41038  98.0077 146.0537 0001880 137.0695 223.0665 14.83044842563111
KENT RIDGE 1            
1 41167U 15077B   26117.27559963  .00004796  00000+0  16721-3 0  9997
2 41167  14.9801 284.5191 0008316 241.1259 118.8228 15.22817301573326
GAOFEN-4                
1 41194U 15083A   26117.49365770 -.00000344  00000+0  00000+0 0  9994
2 41194   0.3784  82.7810 0003283 132.3456 283.7587  1.00273858 38026
JASON-3                 
1 41240U 16002A   26117.43953194 -.00000047  00000+0  61907-4 0  9993
2 41240  66.0415 232.5252 0008010 274.6761  85.3343 12.87626204480712
SENTINEL-3A             
1 41335U 16011A   26117.51264596  .00000106  00000+0  61676-4 0  9996
2 41335  98.6271 185.6173 0000991 100.6213 259.5079 14.26739306530831
ZIYUAN 3-02 (ZY 3-02)   
1 41556U 16033A   26117.54484837  .00006847  00000+0  30843-3 0  9999
2 41556  97.3849 194.2855 0014214 110.4761 249.8002 15.21285178550284
CARTOSAT-2C             
1 41599U 16040A   26117.47711492  .00007119  00000+0  34060-3 0  9994
2 41599  97.4527 178.1402 0008244 315.4756  44.5815 15.19256255546010
SKYSAT-C1               
1 41601U 16040C   26117.07114425  .00009407  00000+0  27540-3 0  9994
2 41601  96.9620 151.5820 0002553 163.0743 197.0587 15.35425723550023
LAPAN-A3                
1 41603U 16040E   26117.53643772  .00003546  00000+0  11428-3 0  9995
2 41603  97.1488 115.3616 0009978 186.2016 173.9105 15.32768310547056
GAOFEN-3                
1 41727U 16049A   26117.50739472  .00000129  00000+0  52231-4 0  9993
2 41727  98.4035 126.0561 0001136  64.7826 295.3482 14.42226709511341
SKYSAT-C4               
1 41771U 16058B   26117.32187348  .00019527  00000+0  38796-3 0  9992
2 41771  96.9220 141.2726 0003493  94.2312 265.9338 15.47000471537609
SKYSAT-C5               
1 41772U 16058C   26117.42193772  .00009349  00000+0  28876-3 0  9991
2 41772  97.0527 160.3417 0004966 108.4795 251.6989 15.33728238535964
SKYSAT-C2               
1 41773U 16058D   26117.04084119  .00012048  00000+0  29493-3 0  9990
2 41773  97.0217 141.0953 0002172 194.4288 165.6898 15.40903809537176
SKYSAT-C3               
1 41774U 16058E   26117.12456234  .00026789  00000+0  47166-3 0  9995
2 41774  96.9094 149.9935 0002745 103.3123 256.8437 15.50416321538192
ALSAT-1B                
1 41785U 16059C   26117.47090160  .00000685  00000+0  11602-3 0  9991
2 41785  97.7778 128.4223 0010248  36.6486 323.5421 14.72235505513117
PATHFINDER 1            
1 41787U 16059E   26117.27567685  .00000808  00000+0  14958-3 0  9996
2 41787  97.8177 118.8510 0028762  11.7064 348.4804 14.67599141512248
SCATSAT 1               
1 41790U 16059H   26117.42130655  .00001431  00000+0  19431-3 0  9994
2 41790  98.1223 180.6601 0055755  52.7687 307.8592 14.79413722 94087
GOKTURK 1A              
1 41875U 16073A   26117.55854300  .00000352  00000+0  78060-4 0  9993
2 41875  98.1304  13.0116 0001395  83.8553 276.2808 14.62794110501424
RESOURCESAT-2A          
1 41877U 16074A   26117.46575986  .00000531  00000+0  26246-3 0  9993
2 41877  98.7537 191.3810 0001590 196.8867 163.2257 14.21619569487099
CARTOSAT-2D             
1 41948U 17008A   26117.50995898  .00009589  00000+0  45722-3 0  9995
2 41948  97.4148 177.7501 0005606  68.2561 291.9270 15.19289387509887
SENTINEL-2B             
1 42063U 17013A   26117.50816649  .00000274  00000+0  12115-3 0  9998
2 42063  98.5649 193.0003 0001239  90.2772 269.8552 14.30815137477396
CARTOSAT-2E             
1 42767U 17036C   26117.52702788 -.00000036  00000+0  14868-5 0  9990
2 42767  97.4315 178.1522 0004561 121.6389 238.5291 15.19317074490459
FORMOSAT-5              
1 42920U 17049A   26117.50236598  .00000186  00000+0  58081-4 0  9993
2 42920  98.2259 193.9358 0010395 234.7005 125.3218 14.50878238459322
SENTINEL-5P             
1 42969U 17064A   26117.45179933  .00000056  00000+0  47584-4 0  9998
2 42969  98.7942  59.9481 0001258  81.0752 279.0567 14.19510093442364
SKYSAT-C11              
1 42987U 17068A   26117.39912772  .00033321  00000+0  49233-3 0  9994
2 42987  97.4283 264.1433 0001544 138.4902 221.6469 15.55271075475340
SKYSAT-C10              
1 42988U 17068B   26117.35283264  .00011735  00000+0  36201-3 0  9994
2 42988  97.4424 253.7628 0001655 109.5731 250.5690 15.33736260474568
SKYSAT-C9               
1 42989U 17068C   26117.32699441  .00016229  00000+0  40413-3 0  9993
2 42989  97.4346 254.2000 0007523 326.3097  33.7670 15.40303592474921
SKYSAT-C8               
1 42990U 17068D   26117.33419611  .00013747  00000+0  39490-3 0  9990
2 42990  97.4442 253.3548 0001201 111.9583 248.1788 15.35949482474506
SKYSAT-C7               
1 42991U 17068E   26117.39103728  .00013743  00000+0  39540-3 0  9998
2 42991  97.4453 254.3985 0004649 291.1524  68.9222 15.35892660474573
SKYSAT-C6               
1 42992U 17068F   26117.32941514  .00012495  00000+0  38749-3 0  9998
2 42992  97.4488 254.4738 0001727 358.3104   1.8132 15.33551417474524
CARTOSAT-2F             
1 43111U 18004A   26117.49295525  .00008654  00000+0  41310-3 0  9995
2 43111  97.4081 177.7458 0002451  94.4003 265.7512 15.19293055459637
GAOFEN-1 02             
1 43259U 18031A   26117.53828720  .00001336  00000+0  19951-3 0  9998
2 43259  98.0561 180.1973 0003494 147.4272 212.7154 14.76447420435227
GAOFEN-1 03             
1 43260U 18031B   26117.51643354  .00000803  00000+0  12285-3 0  9997
2 43260  98.0550 180.0390 0001593 203.8733 156.2402 14.76433249435217
GAOFEN-1 04             
1 43262U 18031D   26117.49205196  .00001207  00000+0  18085-3 0  9997
2 43262  98.0562 180.1996 0000699  98.4960 261.6329 14.76469219435205
SENTINEL-3B             
1 43437U 18039A   26117.41567830  .00000119  00000+0  67145-4 0  9990
2 43437  98.6270 185.6697 0001647  92.1665 267.9704 14.26734039416885
